[{"OBJECT_NAME":"STARLINK-35495","OBJECT_ID":"2025-245K","EPOCH":"2026-03-09T21:44:14.081856","MEAN_MOTION":15.30212846,"ECCENTRICITY":0.00014919,"INCLINATION":53.159,"RA_OF_ASC_NODE":282.601,"ARG_OF_PERICENTER":148.5669,"MEAN_ANOMALY":211.5421,"EPHEMERIS_TYPE":0,"CLASSIFICATION_TYPE":"U","NORAD_CAT_ID":66243,"ELEMENT_SET_NO":999,"REV_AT_EPOCH":2128,"BSTAR":0.0008735982,"MEAN_MOTION_DOT":0.00025614,"MEAN_MOTION_DDOT":0},{"OBJECT_NAME":"ELECTRON KICK STAGE R\/B","OBJECT_ID":"2022-147B","EPOCH":"2026-03-09T22:28:20.187264","MEAN_MOTION":15.28920172,"ECCENTRICITY":0.00095089,"INCLINATION":97.642,"RA_OF_ASC_NODE":85.1135,"ARG_OF_PERICENTER":110.4683,"MEAN_ANOMALY":249.7578,"EPHEMERIS_TYPE":0,"CLASSIFICATION_TYPE":"U","NORAD_CAT_ID":54228,"ELEMENT_SET_NO":999,"REV_AT_EPOCH":18390,"BSTAR":0.00083201931,"MEAN_MOTION_DOT":0.00023374,"MEAN_MOTION_DDOT":0}]
